STARLINK-5886           
1 56350U 23058AK  26068.98513152  .00000076  00000+0  94943-5 0  9999
2 56350  97.6046  71.5502 0002310  89.8875 270.2617 15.05648558158246
CENTAURI-6              
1 59451U 24066K   26068.32290132  .00007311  00000+0  52686-3 0  9997
2 59451  45.6063  55.7055 0002534 285.4438  74.6166 15.04786474105074
